[{"OBJECT_NAME":"GAOFEN-9 02","OBJECT_ID":"2020-034B","EPOCH":"2026-03-10T00:01:23.433024","MEAN_MOTION":15.24736529,"ECCENTRICITY":0.00138652,"INCLINATION":97.5615,"RA_OF_ASC_NODE":225.1997,"ARG_OF_PERICENTER":60.5372,"MEAN_ANOMALY":299.7247,"EPHEMERIS_TYPE":0,"CLASSIFICATION_TYPE":"U","NORAD_CAT_ID":45625,"ELEMENT_SET_NO":999,"REV_AT_EPOCH":32104,"BSTAR":0.00036092627,"MEAN_MOTION_DOT":8.888e-5,"MEAN_MOTION_DDOT":0},{"OBJECT_NAME":"STARLINK-30372","OBJECT_ID":"2023-134U","EPOCH":"2026-03-09T01:41:25.416384","MEAN_MOTION":15.27591071,"ECCENTRICITY":0.00021652,"INCLINATION":43.0069,"RA_OF_ASC_NODE":81.8748,"ARG_OF_PERICENTER":274.4128,"MEAN_ANOMALY":85.6476,"EPHEMERIS_TYPE":0,"CLASSIFICATION_TYPE":"U","NORAD_CAT_ID":57789,"ELEMENT_SET_NO":999,"REV_AT_EPOCH":14077,"BSTAR":4.985686e-6,"MEAN_MOTION_DOT":-1.25e-6,"MEAN_MOTION_DDOT":0}]
